$$SOE
2460154.500000000, A.D. 2023-Jul-29 00:00:00.0000, 6.620698338736440E+08, -4.238083644528137E+08, 2.437690503905766E+08,
2460161.500000000, A.D. 2023-Aug-05 00:00:00.0000, 6.668326950863094E+08, -4.182582509907722E+08, 2.422360408641861E+08,
2460168.500000000, A.D. 2023-Aug-12 00:00:00.0000, 6.715375416330256E+08, -4.126717659812095E+08, 2.406819543253824E+08,
2460175.500000000, A.D. 2023-Aug-19 00:00:00.0000, 6.761840786581552E+08, -4.070494692060705E+08, 2.391069678620293E+08,
2460182.500000000, A.D. 2023-Aug-26 00:00:00.0000, 6.807720170717192E+08, -4.013919212784302E+08, 2.375112593784055E+08,
2460189.500000000, A.D. 2023-Sep-02 00:00:00.0000, 6.853010734966686E+08, -3.956996835880805E+08, 2.358950075791834E+08,
2460196.500000000, A.D. 2023-Sep-09 00:00:00.0000, 6.897709702295976E+08, -3.899733183603345E+08, 2.342583919421870E+08,
2460203.500000000, A.D. 2023-Sep-16 00:00:00.0000, 6.941814353833655E+08, -3.842133888859547E+08, 2.326015926597823E+08,
2460210.500000000, A.D. 2023-Sep-23 00:00:00.0000, 6.985322036281160E+08, -3.784204596353344E+08, 2.309247905342301E+08,
2460217.500000000, A.D. 2023-Sep-30 00:00:00.0000, 7.028230171912961E+08, -3.725950950661582E+08, 2.292281669556391E+08,
2460224.500000000, A.D. 2023-Oct-07 00:00:00.0000, 7.070536247631383E+08, -3.667378576674918E+08, 2.275119041343349E+08,
2460231.500000000, A.D. 2023-Oct-14 00:00:00.0000, 7.112237793475096E+08, -3.608493085536561E+08, 2.257761852217123E+08,
2460238.500000000, A.D. 2023-Oct-21 00:00:00.0000, 7.153332382866007E+08, -3.549300090051713E+08, 2.240211941545206E+08,
2460245.500000000, A.D. 2023-Oct-28 00:00:00.0000, 7.193817640350997E+08, -3.489805206965834E+08, 2.222471155381331E+08,
2460252.500000000, A.D. 2023-Nov-04 00:00:00.0000, 7.233691244338565E+08, -3.430014053815728E+08, 2.204541346207701E+08,
2460259.500000000, A.D. 2023-Nov-11 00:00:00.0000, 7.272950926606140E+08, -3.369932246352462E+08, 2.186424372936310E+08,
2460266.500000000, A.D. 2023-Nov-18 00:00:00.0000, 7.311594470772897E+08, -3.309565397179200E+08, 2.168122100917855E+08,
2460273.500000000, A.D. 2023-Nov-25 00:00:00.0000, 7.349619710466250E+08, -3.248919115378304E+08, 2.149636401911948E+08,
2460280.500000000, A.D. 2023-Dec-02 00:00:00.0000, 7.387024527463653E+08, -3.187999007239588E+08, 2.130969153985251E+08,
2460287.500000000, A.D. 2023-Dec-09 00:00:00.0000, 7.423806850587672E+08, -3.126810678678783E+08, 2.112122241218808E+08,
2460294.500000000, A.D. 2023-Dec-16 00:00:00.0000, 7.459964658229153E+08, -3.065359739220111E+08, 2.093097552971045E+08,
2460301.500000000, A.D. 2023-Dec-23 00:00:00.0000, 7.495495987982782E+08, -3.003651800667576E+08, 2.073896982937785E+08,
2460308.500000000, A.D. 2023-Dec-30 00:00:00.0000, 7.530398939993666E+08, -2.941692459971594E+08, 2.054522430095290E+08,
2460315.500000000, A.D. 2024-Jan-06 00:00:00.0000, 7.564671656291848E+08, -2.879487289899011E+08, 2.034975801221927E+08,
2460322.500000000, A.D. 2024-Jan-13 00:00:00.0000, 7.598312307841330E+08, -2.817041855576361E+08, 2.015259010609056E+08,
2460329.500000000, A.D. 2024-Jan-20 00:00:00.0000, 7.631319101538072E+08, -2.754361726059600E+08, 1.995373978356329E+08,
2460336.500000000, A.D. 2024-Jan-27 00:00:00.0000, 7.663690286869999E+08, -2.691452474407484E+08, 1.975322629642752E+08,
2460343.500000000, A.D. 2024-Feb-03 00:00:00.0000, 7.695424157955972E+08, -2.628319675744631E+08, 1.955106894589171E+08,
2460350.500000000, A.D. 2024-Feb-10 00:00:00.0000, 7.726519053737822E+08, -2.564968906225444E+08, 1.934728708217909E+08,
2460357.500000000, A.D. 2024-Feb-17 00:00:00.0000, 7.756973357712812E+08, -2.501405742819714E+08, 1.914190010387173E+08,
2460364.500000000, A.D. 2024-Feb-24 00:00:00.0000, 7.786785497566227E+08, -2.437635763772045E+08, 1.893492745678040E+08,
2460371.500000000, A.D. 2024-Mar-02 00:00:00.0000, 7.815953944997877E+08, -2.373664550060524E+08, 1.872638863179548E+08,
2460378.500000000, A.D. 2024-Mar-09 00:00:00.0000, 7.844477217130539E+08, -2.309497688483497E+08, 1.851630315992306E+08,
2460385.500000000, A.D. 2024-Mar-16 00:00:00.0000, 7.872353883452880E+08, -2.245140774401816E+08, 1.830469060248430E+08,
2460392.500000000, A.D. 2024-Mar-23 00:00:00.0000, 7.899582577260818E+08, -2.180599403045466E+08, 1.809157054648521E+08,
2460399.500000000, A.D. 2024-Mar-30 00:00:00.0000, 7.926161989186952E+08, -2.115879149652425E+08, 1.787696262549778E+08,
2460406.500000000, A.D. 2024-Apr-06 00:00:00.0000, 7.952090845378767E+08, -2.050985572117335E+08, 1.766088653618487E+08,
2460413.500000000, A.D. 2024-Apr-13 00:00:00.0000, 7.977367905834891E+08, -1.985924227786204E+08, 1.744336202472194E+08,
2460420.500000000, A.D. 2024-Apr-20 00:00:00.0000, 8.001991973376324E+08, -1.920700677629156E+08, 1.722440887371548E+08,
2460427.500000000, A.D. 2024-Apr-27 00:00:00.0000, 8.025961898082409E+08, -1.855320483403761E+08, 1.700404689894742E+08,
2460434.500000000, A.D. 2024-May-04 00:00:00.0000, 8.049276578071280E+08, -1.789789204841158E+08, 1.678229594939941E+08,
2460441.500000000, A.D. 2024-May-11 00:00:00.0000, 8.071934959009008E+08, -1.724112397870623E+08, 1.655917590755191E+08,
2460448.500000000, A.D. 2024-May-18 00:00:00.0000, 8.093936033168317E+08, -1.658295613663543E+08, 1.633470668940131E+08,
2460455.500000000, A.D. 2024-May-25 00:00:00.0000, 8.115278838285003E+08, -1.592344398565141E+08, 1.610890824393220E+08,
2460462.500000000, A.D. 2024-Jun-01 00:00:00.0000, 8.135962456811118E+08, -1.526264295485551E+08, 1.588180055105056E+08,
2460469.500000000, A.D. 2024-Jun-08 00:00:00.0000, 8.155986018028466E+08, -1.460060846977363E+08, 1.565340361555415E+08,
2460476.500000000, A.D. 2024-Jun-15 00:00:00.0000, 8.175348707016690E+08, -1.393739594545996E+08, 1.542373745795276E+08,
2460483.500000000, A.D. 2024-Jun-22 00:00:00.0000, 8.194049770423708E+08, -1.327306062438229E+08, 1.519282212098761E+08,
2460490.500000000, A.D. 2024-Jun-29 00:00:00.0000, 8.212088497823696E+08, -1.260765744115012E+08, 1.496067769646211E+08,
2460497.500000000, A.D. 2024-Jul-06 00:00:00.0000, 8.229464205112923E+08, -1.194124116119605E+08, 1.472732432795080E+08,
2460504.500000000, A.D. 2024-Jul-13 00:00:00.0000, 8.246176239434201E+08, -1.127386651099112E+08, 1.449278219459448E+08,
2460511.500000000, A.D. 2024-Jul-20 00:00:00.0000, 8.262223985772774E+08, -1.060558818491018E+08, 1.425707150358807E+08,
2460518.500000000, A.D. 2024-Jul-27 00:00:00.0000, 8.277606868663983E+08, -9.936460824684331E+07, 1.402021248953925E+08,
2460525.500000000, A.D. 2024-Aug-03 00:00:00.0000, 8.292324351742382E+08, -9.266539008925104E+07, 1.378222541512435E+08,
2460532.500000000, A.D. 2024-Aug-10 00:00:00.0000, 8.306375936790117E+08, -8.595877253146273E+07, 1.354313057147048E+08,
2460539.500000000, A.D. 2024-Aug-17 00:00:00.0000, 8.319761162757983E+08, -7.924530018082325E+07, 1.330294827798791E+08,
2460546.500000000, A.D. 2024-Aug-24 00:00:00.0000, 8.332479605037596E+08, -7.252551728493813E+07, 1.306169888119151E+08,
2460553.500000000, A.D. 2024-Aug-31 00:00:00.0000, 8.344530876140754E+08, -6.579996808573554E+07, 1.281940275092156E+08,
2460560.500000000, A.D. 2024-Sep-07 00:00:00.0000, 8.355914631440262E+08, -5.906919721282995E+07, 1.257608027161514E+08,
2460567.500000000, A.D. 2024-Sep-14 00:00:00.0000, 8.366630580823517E+08, -5.233374911995295E+07, 1.233175183595617E+08,
2460574.500000000, A.D. 2024-Sep-21 00:00:00.0000, 8.376678485970933E+08, -4.559416615150385E+07, 1.208643786286482E+08,
2460581.500000000, A.D. 2024-Sep-28 00:00:00.0000, 8.386058138386041E+08, -3.885098846670459E+07, 1.184015881790881E+08,
2460588.500000000, A.D. 2024-Oct-05 00:00:00.0000, 8.394769354874177E+08, -3.210475581965401E+07, 1.159293520247497E+08,
2460595.500000000, A.D. 2024-Oct-12 00:00:00.0000, 8.402811986862175E+08, -2.535600821499348E+07, 1.134478753934848E+08,
2460602.500000000, A.D. 2024-Oct-19 00:00:00.0000, 8.410185926049999E+08, -1.860528570976614E+07, 1.109573636854209E+08,
2460609.500000000, A.D. 2024-Oct-26 00:00:00.0000, 8.416891106071892E+08, -1.185312816263916E+07, 1.084580224712401E+08,
2460616.500000000, A.D. 2024-Nov-02 00:00:00.0000, 8.422927502742171E+08, -5.100075078640334E+06, 1.059500574947418E+08,
2460623.500000000, A.D. 2024-Nov-09 00:00:00.0000, 8.428295133853598E+08, 1.653334471542843E+06, 1.034336746725617E+08,
2460630.500000000, A.D. 2024-Nov-16 00:00:00.0000, 8.432994058789257E+08, 8.406561858211569E+06, 1.009090800887426E+08,
2460637.500000000, A.D. 2024-Nov-23 00:00:00.0000, 8.437024378418740E+08, 1.515906877557314E+07, 9.837647997582833E+07,
2460644.500000000, A.D. 2024-Nov-30 00:00:00.0000, 8.440386237362229E+08, 2.191031695846393E+07, 9.583608065994276E+07,
2460651.500000000, A.D. 2024-Dec-07 00:00:00.0000, 8.443079832816335E+08, 2.865976815368871E+07, 9.328808846580374E+07,
2460658.500000000, A.D. 2024-Dec-14 00:00:00.0000, 8.445105423054438E+08, 3.540688557023558E+07, 9.073270974494134E+07,
2460665.500000000, A.D. 2024-Dec-21 00:00:00.0000, 8.446463312417370E+08, 4.215113556790930E+07, 8.817015113856706E+07,
2460672.500000000, A.D. 2024-Dec-28 00:00:00.0000, 8.447153832521505E+08, 4.889198661713767E+07, 8.560061965189771E+07,
2460679.500000000, A.D. 2025-Jan-04 00:00:00.0000, 8.447177345656891E+08, 5.562890790614577E+07, 8.302432249608505E+07,
2460686.500000000, A.D. 2025-Jan-11 00:00:00.0000, 8.446534252163247E+08, 6.236136925544021E+07, 8.044146700066854E+07,
2460693.500000000, A.D. 2025-Jan-18 00:00:00.0000, 8.445224992616563E+08, 6.908884142086723E+07, 7.785226060584641E+07,
2460700.500000000, A.D. 2025-Jan-25 00:00:00.0000, 8.443250047263347E+08, 7.581079631069162E+07, 7.525691087372644E+07,
2460707.500000000, A.D. 2025-Feb-01 00:00:00.0000, 8.440609934599247E+08, 8.252670708653274E+07, 7.265562549897864E+07,
2460714.500000000, A.D. 2025-Feb-08 00:00:00.0000, 8.437305209677321E+08, 8.923604816779235E+07, 7.004861231537387E+07,
2460721.500000000, A.D. 2025-Feb-15 00:00:00.0000, 8.433336462434915E+08, 9.593829511953384E+07, 6.743607929412912E+07,
$$EOE